{
  "norad_id": 48470,
  "name": "STARLINK-2675",
  "history": [
    {
      "epoch": "2026-03-28T08:04:59.378304Z",
      "apogee_km": 476.1204289646221,
      "perigee_km": 474.374460743451,
      "latitude_deg": 2.0092639526361003e-05,
      "longitude_deg": 157.42180605094103,
      "height_km": 476.2461687878513,
      "semi_major_axis_km": 6853.384444854037,
      "eccentricity": 0.00012738,
      "inclination_deg": 53.161,
      "raan_deg": 104.4279,
      "arg_perigee_deg": 96.6136,
      "mean_anomaly_deg": 263.501,
      "mean_motion_rev_day": 15.30189157
    },
    {
      "epoch": "2026-03-29T04:27:40.255776Z",
      "apogee_km": 476.08040003873884,
      "perigee_km": 474.30812857378896,
      "latitude_deg": 2.3239427762189198e-05,
      "longitude_deg": -153.02991017447596,
      "height_km": 476.1382586347428,
      "semi_major_axis_km": 6853.331264306264,
      "eccentricity": 0.0001293,
      "inclination_deg": 53.1606,
      "raan_deg": 100.4834,
      "arg_perigee_deg": 92.9682,
      "mean_anomaly_deg": 267.1467,
      "mean_motion_rev_day": 15.30206968
    },
    {
      "epoch": "2026-03-30T00:50:21.975648Z",
      "apogee_km": 475.8887305667595,
      "perigee_km": 474.603035937861,
      "latitude_deg": -1.2574961250079604e-05,
      "longitude_deg": -103.48467441907216,
      "height_km": 475.513384723776,
      "semi_major_axis_km": 6853.38288325231,
      "eccentricity": 9.38e-05,
      "inclination_deg": 53.1607,
      "raan_deg": 96.5394,
      "arg_perigee_deg": 10.5002,
      "mean_anomaly_deg": 349.6018,
      "mean_motion_rev_day": 15.3018968
    },
    {
      "epoch": "2026-03-30T07:06:34.301376Z",
      "apogee_km": 476.01250817750133,
      "perigee_km": 474.4567928128381,
      "latitude_deg": -3.131866089151412e-05,
      "longitude_deg": 160.9912512518468,
      "height_km": 476.24761196111655,
      "semi_major_axis_km": 6853.371650495169,
      "eccentricity": 0.0001135,
      "inclination_deg": 53.1601,
      "raan_deg": 95.3242,
      "arg_perigee_deg": 98.4777,
      "mean_anomaly_deg": 261.6352,
      "mean_motion_rev_day": 15.30193442
    },
    {
      "epoch": "2026-03-31T06:37:21.826848Z",
      "apogee_km": 475.94001647416917,
      "perigee_km": 474.3952816062747,
      "latitude_deg": -3.471723150076329e-06,
      "longitude_deg": 162.7775975262395,
      "height_km": 476.2280517928666,
      "semi_major_axis_km": 6853.304649040221,
      "eccentricity": 0.0001127,
      "inclination_deg": 53.1603,
      "raan_deg": 90.7742,
      "arg_perigee_deg": 102.1122,
      "mean_anomaly_deg": 258.0005,
      "mean_motion_rev_day": 15.30215882
    },
    {
      "epoch": "2026-04-01T09:16:17.372352Z",
      "apogee_km": 475.9578373422655,
      "perigee_km": 474.57619109299867,
      "latitude_deg": -4.776057218962319e-07,
      "longitude_deg": 116.79473585688115,
      "height_km": 475.92612106973337,
      "semi_major_axis_km": 6853.404014217632,
      "eccentricity": 0.0001008,
      "inclination_deg": 53.1607,
      "raan_deg": 85.6172,
      "arg_perigee_deg": 69.717,
      "mean_anomaly_deg": 290.3939,
      "mean_motion_rev_day": 15.30182603
    },
    {
      "epoch": "2026-04-02T16:37:21.677664Z",
      "apogee_km": 476.04718574587696,
      "perigee_km": 474.3968968887275,
      "latitude_deg": 2.3101423832809602e-05,
      "longitude_deg": -0.8277320012989011,
      "height_km": 475.8812322774953,
      "semi_major_axis_km": 6853.359041317302,
      "eccentricity": 0.0001204,
      "inclination_deg": 53.1606,
      "raan_deg": 79.5502,
      "arg_perigee_deg": 73.1553,
      "mean_anomaly_deg": 286.958,
      "mean_motion_rev_day": 15.30197665
    },
    {
      "epoch": "2026-04-02T16:37:21.678528Z",
      "apogee_km": 476.0469116115155,
      "perigee_km": 474.39717102308987,
      "latitude_deg": 2.6628986830672774e-05,
      "longitude_deg": -0.8277329830280942,
      "height_km": 475.88131171511134,
      "semi_major_axis_km": 6853.359041317302,
      "eccentricity": 0.00012036,
      "inclination_deg": 53.1606,
      "raan_deg": 79.5502,
      "arg_perigee_deg": 73.1553,
      "mean_anomaly_deg": 286.958,
      "mean_motion_rev_day": 15.30197665
    },
    {
      "epoch": "2026-04-03T16:08:09.731040Z",
      "apogee_km": 476.1584058524968,
      "perigee_km": 474.3093663874215,
      "latitude_deg": 6.0317613155079375e-05,
      "longitude_deg": 0.9532145932826334,
      "height_km": 476.1602768142672,
      "semi_major_axis_km": 6853.370886119959,
      "eccentricity": 0.0001349,
      "inclination_deg": 53.1611,
      "raan_deg": 74.997,
      "arg_perigee_deg": 91.7552,
      "mean_anomaly_deg": 268.3604,
      "mean_motion_rev_day": 15.30193698
    },
    {
      "epoch": "2026-04-04T06:14:38.700096Z",
      "apogee_km": 476.1604662854397,
      "perigee_km": 474.32773511149026,
      "latitude_deg": 8.713774398176144e-07,
      "longitude_deg": 146.02206873252476,
      "height_km": 476.2468015408577,
      "semi_major_axis_km": 6853.381100698464,
      "eccentricity": 0.00013371,
      "inclination_deg": 53.1619,
      "raan_deg": 72.266,
      "arg_perigee_deg": 96.5486,
      "mean_anomaly_deg": 263.5667,
      "mean_motion_rev_day": 15.30190277
    },
    {
      "epoch": "2026-04-05T07:19:28.514496Z",
      "apogee_km": 476.100185212149,
      "perigee_km": 474.23882716506796,
      "latitude_deg": 1.9935526268345648e-06,
      "longitude_deg": 123.92998861956451,
      "height_km": 476.3123715673302,
      "semi_major_axis_km": 6853.306506188608,
      "eccentricity": 0.0001358,
      "inclination_deg": 53.1628,
      "raan_deg": 67.4115,
      "arg_perigee_deg": 105.2338,
      "mean_anomaly_deg": 254.8813,
      "mean_motion_rev_day": 15.3021526
    },
    {
      "epoch": "2026-04-05T21:25:58.141056Z",
      "apogee_km": 476.58316437071244,
      "perigee_km": 473.89389981192016,
      "latitude_deg": -3.749897161157093e-05,
      "longitude_deg": -91.00059025603555,
      "height_km": 475.88218836096604,
      "semi_major_axis_km": 6853.375532091316,
      "eccentricity": 0.0001962,
      "inclination_deg": 53.1621,
      "raan_deg": 64.6838,
      "arg_perigee_deg": 79.1235,
      "mean_anomaly_deg": 280.9986,
      "mean_motion_rev_day": 15.30192142
    },
    {
      "epoch": "2026-04-06T06:50:17.455200Z",
      "apogee_km": 476.25257145001615,
      "perigee_km": 474.3022267803153,
      "latitude_deg": -1.3477724167633475e-05,
      "longitude_deg": 125.7127865235803,
      "height_km": 475.9728646656408,
      "semi_major_axis_km": 6853.414399115165,
      "eccentricity": 0.00014229,
      "inclination_deg": 53.161,
      "raan_deg": 62.8639,
      "arg_perigee_deg": 78.0122,
      "mean_anomaly_deg": 282.1038,
      "mean_motion_rev_day": 15.30179125
    },
    {
      "epoch": "2026-04-07T06:21:04.488192Z",
      "apogee_km": 475.84250399032226,
      "perigee_km": 474.4910324872253,
      "latitude_deg": -5.628942171344453e-05,
      "longitude_deg": 127.4992340239258,
      "height_km": 476.04863835160756,
      "semi_major_axis_km": 6853.303768238773,
      "eccentricity": 9.86e-05,
      "inclination_deg": 53.1618,
      "raan_deg": 58.312,
      "arg_perigee_deg": 88.5756,
      "mean_anomaly_deg": 271.5357,
      "mean_motion_rev_day": 15.30216177
    },
    {
      "epoch": "2026-04-08T13:42:08.139456Z",
      "apogee_km": 476.1960954301794,
      "perigee_km": 474.25988275346117,
      "latitude_deg": 4.60825765253243e-05,
      "longitude_deg": 9.87615236756856,
      "height_km": 475.8625845458674,
      "semi_major_axis_km": 6853.3649890918205,
      "eccentricity": 0.00014126,
      "inclination_deg": 53.1614,
      "raan_deg": 52.2416,
      "arg_perigee_deg": 74.2057,
      "mean_anomaly_deg": 285.91,
      "mean_motion_rev_day": 15.30195673
    }
  ]
}